[Satellite]
VERSION=1.1
NAME=INSAT-3D
NICKNAME=INSAT-3D
TLE1=1 39216U 13038B   15054.57940274 -.00000181  00000-0  00000+0 0  9999
TLE2=2 39216   0.0804 258.9358 0000609  51.8688 132.9549  1.00269136  5877
